SatCatId,ObjectName,LaunchYear,OrbitalPeriod,LaunchMass,StatusCode,Inclination,Status,UcsData,OrbitClassEstimated,LaunchSiteCountry,Owner,UseType,Purpose,LaunchVehicleClass,TLE1,TLE2,MeanMotion,Eccentricity,OrbitClass
53146,STARLINK-4099,2022,95.44,-1.0,+,53.21,Active,0,LEO,USA,USA,Unknown,Unknown,Falcon,1 53146U 22083Q   23027.90303772  .00000133  00000+0  26431-4 0  9995,2 53146  53.2142 237.3591 0001229  98.7410 261.3721 15.08839924 30230,15.08839924,0.0001229,LEO
53147,STARLINK-4094,2022,95.44,-1.0,+,53.22,Active,0,LEO,USA,USA,Unknown,Unknown,Falcon,1 53147U 22083R   23027.88464143  .00000417  00000+0  44305-4 0  9998,2 53147  53.2166 237.4315 0000990  85.2120 274.8985 15.08837265 30254,15.08837265,9.9e-05,LEO
53148,STARLINK-4066,2022,95.44,-1.0,+,53.22,Active,0,LEO,USA,USA,Unknown,Unknown,Falcon,1 53148U 22083S   23027.89199989  .00000899  00000+0  74558-4 0  9990,2 53148  53.2154 237.4067 0001026  90.7930 269.3180 15.08836648 29604,15.08836648,0.0001026,LEO
53149,STARLINK-4021,2022,95.44,-1.0,+,53.22,Active,0,LEO,USA,USA,Unknown,Unknown,Falcon,1 53149U 22083T   23027.82667800  .00000188  00000+0  29894-4 0  9990,2 53149  53.2158 227.6926 0001222  86.5390 273.5742 15.08840088 29733,15.08840088,0.0001222,LEO
53150,STARLINK-4038,2022,95.44,-1.0,+,53.22,Active,0,LEO,USA,USA,Unknown,Unknown,Falcon,1 53150U 22083U   23027.86715815  .00000949  00000+0  77713-4 0  9994,2 53150  53.2166 227.5040 0001230  82.0876 278.0255 15.08840539 29739,15.08840539,0.000123,LEO
53151,STARLINK-4040,2022,95.44,-1.0,+,53.21,Active,0,LEO,USA,USA,Unknown,Unknown,Falcon,1 53151U 22083V   23027.85611977  .00000646  00000+0  58685-4 0  9999,2 53151  53.2152 227.5598 0001063  87.4744 272.6370 15.08835434 30367,15.08835434,0.0001063,LEO
53152,STARLINK-4045,2022,95.44,-1.0,+,53.22,Active,0,LEO,USA,USA,Unknown,Unknown,Falcon,1 53152U 22083W   23027.86348053  .00001295  00000+0  99426-4 0  9992,2 53152  53.2172 227.5224 0001062  79.5464 280.5648 15.08839472 29737,15.08839472,0.0001062,LEO
53153,STARLINK-4098,2022,95.44,-1.0,+,53.22,Active,0,LEO,USA,USA,Unknown,Unknown,Falcon,1 53153U 22083X   23027.85244403  .00000588  00000+0  55030-4 0  9993,2 53153  53.2162 227.5775 0001193  75.8824 284.2301 15.08831335 30360,15.08831335,0.0001193,LEO
53154,STARLINK-4077,2022,95.44,-1.0,+,53.22,Active,0,LEO,USA,USA,Unknown,Unknown,Falcon,1 53154U 22083Y   23027.85980071  .00001132  00000+0  89184-4 0  9995,2 53154  53.2165 227.5481 0001091  84.6494 275.4622 15.08837248 29732,15.08837248,0.0001091,LEO
53155,STARLINK-4088,2022,95.44,-1.0,+,53.22,Active,0,LEO,USA,USA,Unknown,Unknown,Falcon,1 53155U 22083Z   23027.84504285  .00007078  00000+0  46186-3 0  9993,2 53155  53.2174 227.6126 0001419  78.5182 281.5969 15.08877805 30366,15.08877805,0.0001419,LEO
53156,STARLINK-4087,2022,95.44,-1.0,+,53.22,Active,0,LEO,USA,USA,Unknown,Unknown,Falcon,1 53156U 22083AA  23027.84605996 -.00000655  00000+0 -23094-4 0  9995,2 53156  53.2165 227.6100 0001104  74.0243 286.0871 15.08817043 30369,15.08817043,0.0001104,LEO
53157,STARLINK-4093,2022,95.44,-1.0,+,53.22,Active,0,LEO,USA,USA,Unknown,Unknown,Falcon,1 53157U 22083AB  23027.83772258  .00000133  00000+0  26475-4 0  9996,2 53157  53.2183 227.6492 0001220  84.6500 275.4631 15.08834584 29730,15.08834584,0.000122,LEO
53158,STARLINK-4054,2022,95.44,-1.0,+,53.22,Active,0,LEO,USA,USA,Unknown,Unknown,Falcon,1 53158U 22083AC  23027.84876253  .00000798  00000+0  68240-4 0  9991,2 53158  53.2166 227.5945 0000985  89.7926 270.3179 15.08830313 30367,15.08830313,9.85e-05,LEO
53159,STARLINK-4111,2022,95.44,-1.0,+,53.22,Active,0,LEO,USA,USA,Unknown,Unknown,Falcon,1 53159U 22083AD  23027.83035734  .00000422  00000+0  44580-4 0  9997,2 53159  53.2168 227.6731 0001366  89.0939 271.0209 15.08840262 29730,15.08840262,0.0001366,LEO
53160,STARLINK-4096,2022,95.44,-1.0,+,53.22,Active,0,LEO,USA,USA,Unknown,Unknown,Falcon,1 53160U 22083AE  23027.84139820  .00001246  00000+0  96335-4 0  9991,2 53160  53.2172 227.6256 0001182  85.6700 274.4428 15.08838491 29734,15.08838491,0.0001182,LEO
53161,STARLINK-4055,2022,95.44,-1.0,+,53.21,Active,0,LEO,USA,USA,Unknown,Unknown,Falcon,1 53161U 22083AF  23027.81931692  .00000944  00000+0  77356-4 0  9992,2 53161  53.2142 227.7381 0001157  79.9250 280.1873 15.08842637 29735,15.08842637,0.0001157,LEO
53162,STARLINK-4114,2022,95.44,-1.0,+,53.22,Active,0,LEO,USA,USA,Unknown,Unknown,Falcon,1 53162U 22083AG  23027.83404295  .00002998  00000+0  20644-3 0  9997,2 53162  53.2178 227.6626 0001117  89.3460 270.7660 15.08828036 29736,15.08828036,0.0001117,LEO
53163,STARLINK-4104,2022,95.44,-1.0,+,53.21,Active,0,LEO,USA,USA,Unknown,Unknown,Falcon,1 53163U 22083AH  23027.81291169 -.00000374  00000+0 -54272-5 0  9994,2 53163  53.2133 227.7619 0001049 100.2383 259.8727 15.08846352 30366,15.08846352,0.0001049,LEO
53164,STARLINK-4116,2022,95.44,-1.0,+,53.21,Active,0,LEO,USA,USA,Unknown,Unknown,Falcon,1 53164U 22083AJ  23027.82299679  .00002165  00000+0  15410-3 0  9997,2 53164  53.2155 227.7153 0001787  87.0837 273.0360 15.08842827 29732,15.08842827,0.0001787,LEO
53165,STARLINK-4090,2022,95.44,-1.0,+,53.21,Active,0,LEO,USA,USA,Unknown,Unknown,Falcon,1 53165U 22083AK  23027.87451998  .00001989  00000+0  14303-3 0  9990,2 53165  53.2139 227.4896 0001283  85.2593 274.8546 15.08841615 29746,15.08841615,0.0001283,LEO
53166,STARLINK-4110,2022,95.44,-1.0,+,53.21,Active,0,LEO,USA,USA,Unknown,Unknown,Falcon,1 53166U 22083AL  23027.81563831  .00001333  00000+0  10184-3 0  9991,2 53166  53.2139 227.7545 0001192  88.4890 271.6239 15.08840590 30360,15.0884059,0.0001192,LEO
53167,STARLINK-3683,2022,95.44,-1.0,+,53.22,Active,0,LEO,USA,USA,Unknown,Unknown,Falcon,1 53167U 22083AM  23027.82717723 -.00000638  00000+0 -22011-4 0  9996,2 53167  53.2165 212.6895 0001340  87.2236 272.8910 15.08839100 30574,15.088391,0.000134,LEO
53168,STARLINK-4105,2022,95.44,-1.0,+,53.21,Active,0,LEO,USA,USA,Unknown,Unknown,Falcon,1 53168U 22083AN  23027.81196032  .00000672  00000+0  60278-4 0  9993,2 53168  53.2135 227.7665 0001098  84.2698 275.8419 15.08838513 29733,15.08838513,0.0001098,LEO
53169,STARLINK-4117,2022,95.44,-1.0,+,53.22,Active,0,LEO,USA,USA,Unknown,Unknown,Falcon,1 53169U 22083AP  23027.77933582 -.00000754  00000+0 -29324-4 0  9998,2 53169  53.2183 212.9017 0001247  80.5011 279.6122 15.08838463 29926,15.08838463,0.0001247,LEO
53170,STARLINK-4095,2022,95.44,-1.0,+,53.22,Active,0,LEO,USA,USA,Unknown,Unknown,Falcon,1 53170U 22083AQ  23027.84466067 -.00000691  00000+0 -25351-4 0  9993,2 53170  53.2163 222.6161 0001184  85.0675 275.0452 15.08831896 29806,15.08831896,0.0001184,LEO
53171,STARLINK-4052,2022,95.44,-1.0,+,53.22,Active,0,LEO,USA,USA,Unknown,Unknown,Falcon,1 53171U 22083AR  23027.74940634 -.00000098  00000+0  11921-4 0  9998,2 53171  53.2183 197.8031 0001117  76.1512 283.9604 15.08837541 30133,15.08837541,0.0001117,LEO
53172,STARLINK-4299,2022,95.44,-1.0,+,53.22,Active,0,LEO,USA,USA,Unknown,Unknown,Falcon,1 53172U 22083AS  23027.84097594  .00001549  00000+0  11542-3 0  9997,2 53172  53.2169 222.6332 0001155  98.2144 261.8980 15.08838308 30434,15.08838308,0.0001155,LEO
53173,STARLINK-4300,2022,95.44,-1.0,+,53.22,Active,0,LEO,USA,USA,Unknown,Unknown,Falcon,1 53173U 22083AT  23027.78761780  .00000483  00000+0  48425-4 0  9993,2 53173  53.2169 202.8677 0001062  81.6455 278.4657 15.08833580 30066,15.0883358,0.0001062,LEO
53174,STARLINK-4205,2022,95.44,-1.0,+,53.22,Active,0,LEO,USA,USA,Unknown,Unknown,Falcon,1 53174U 22083AU  23027.88096493  .00000281  00000+0  35753-4 0  9993,2 53174  53.2145 237.4599 0001095  80.3288 279.7828 15.08834241 29599,15.08834241,0.0001095,LEO
53175,STARLINK-4292,2022,95.44,-1.0,+,53.21,Active,0,LEO,USA,USA,Unknown,Unknown,Falcon,1 53175U 22083AV  23027.87728006  .00000648  00000+0  58812-4 0  9993,2 53175  53.2142 237.4770 0001356  74.0439 286.0702 15.08839298 29595,15.08839298,0.0001356,LEO
53176,STARLINK-4294,2022,95.44,-1.0,+,53.22,Active,0,LEO,USA,USA,Unknown,Unknown,Falcon,1 53176U 22083AW  23027.82349487  .00000597  00000+0  55608-4 0  9994,2 53176  53.2171 212.7107 0001104  87.5502 272.5616 15.08838619 29937,15.08838619,0.0001104,LEO
53177,STARLINK-4298,2022,95.44,-1.0,+,53.22,Active,0,LEO,USA,USA,Unknown,Unknown,Falcon,1 53177U 22083AX  23027.71401490 -.00000458  00000+0 -10683-4 0  9998,2 53177  53.2173 203.1961 0001145  85.8885 274.2238 15.08833831 30057,15.08833831,0.0001145,LEO
53178,STARLINK-4280,2022,95.44,-1.0,+,53.22,Active,0,LEO,USA,USA,Unknown,Unknown,Falcon,1 53178U 22083AY  23027.87083971  .00000907  00000+0  75092-4 0  9998,2 53178  53.2165 227.4957 0001167  77.4412 282.6711 15.08838560 29725,15.0883856,0.0001167,LEO
53179,STARLINK-4276,2022,95.44,-1.0,+,53.22,Active,0,LEO,USA,USA,Unknown,Unknown,Falcon,1 53179U 22083AZ  23027.66470679  .00000569  00000+0  53855-4 0  9998,2 53179  53.2202 188.0111 0001243  92.6242 267.4892 15.08837850 30260,15.0883785,0.0001243,LEO
53180,STARLINK-4258,2022,95.44,-1.0,+,53.22,Active,0,LEO,USA,USA,Unknown,Unknown,Falcon,1 53180U 22083BA  23027.74937133  .00000221  00000+0  31937-4 0  9994,2 53180  53.2191 187.8279 0001070  82.3292 277.7822 15.08839699 30271,15.08839699,0.000107,LEO
53181,STARLINK-4273,2022,95.44,-1.0,+,53.22,Active,0,LEO,USA,USA,Unknown,Unknown,Falcon,1 53181U 22083BB  23027.74664822  .00002127  00000+0  15175-3 0  9999,2 53181  53.2196 187.8108 0000972  81.7197 278.3905 15.08828775 30277,15.08828775,9.72e-05,LEO
53182,STARLINK-4278,2022,95.44,-1.0,+,53.22,Active,0,LEO,USA,USA,Unknown,Unknown,Falcon,1 53182U 22083BC  23027.77657601 -.00000350  00000+0 -39235-5 0  9993,2 53182  53.2163 202.9215 0001229  96.8770 263.2362 15.08833603 30063,15.08833603,0.0001229,LEO
53183,STARLINK-4268,2022,95.44,-1.0,+,53.22,Active,0,LEO,USA,USA,Unknown,Unknown,Falcon,1 53183U 22083BD  23027.79221294  .00000321  00000+0  38260-4 0  9993,2 53183  53.2180 192.8420 0001189  97.3959 262.7169 15.08843780 30200,15.0884378,0.0001189,LEO
